1 42006U 17008BL  20343.18718035  .00004491  00000-0  16714-3 0  9993
2 42006  97.3476  48.6995 0008492  66.5147 293.6984 15.27966483211896
1 42006U 17008BL  20343.64559958  .00004930  00000-0  18319-3 0  9992
2 42006  97.3476  49.1515 0008468  65.0144 295.1974 15.27972189211968
1 42006U 17008BL  20344.30048254  .00004920  00000-0  18278-3 0  9991
2 42006  97.3478  49.7970 0008442  63.0681 297.1420 15.27978186212060
1 42006U 17008BL  20344.88987506  .00005848  00000-0  21669-3 0  9994
2 42006  97.3479  50.3782 0008415  61.3469 298.8616 15.27985570212155
1 42006U 17008BL  20345.15182628  .00006271  00000-0  23212-3 0  9994
2 42006  97.3479  50.6364 0008403  60.5700 299.6378 15.27989224212198
1 42006U 17008BL  20345.28280158  .00006312  00000-0  23361-3 0  9996
2 42006  97.3479  50.7655 0008397  60.1899 300.0175 15.27990721212218
1 42006U 17008BL  20345.74121519  .00006276  00000-0  23229-3 0  9994
2 42006  97.3479  51.2175 0008375  58.8618 301.3442 15.27994857212282
1 42006U 17008BL  20345.87219039  .00006282  00000-0  23251-3 0  9995
2 42006  97.3479  51.3467 0008366  58.4552 301.7504 15.27995869212300
1 42006U 17008BL  20346.13413977  .00006625  00000-0  24499-3 0  9998
2 42006  97.3479  51.6049 0008345  57.6574 302.5473 15.27999485212347
1 42006U 17008BL  20346.46157605  .00005309  00000-0  19691-3 0  9993
2 42006  97.3480  51.9277 0008313  56.7567 303.4468 15.27999842212398
1 42006U 17008BL  20346.91998638  .00004695  00000-0  17444-3 0  9993
2 42006  97.3479  52.3797 0008269  55.3664 304.8354 15.28002618212465
1 42006U 17008BL  20347.18193430  .00004763  00000-0  17691-3 0  9990
2 42006  97.3479  52.6379 0008243  54.5247 305.6761 15.28005462212500
1 42006U 17008BL  20347.83680253  .00004539  00000-0  16868-3 0  9992
2 42006  97.3479  53.2836 0008200  52.6205 307.5780 15.28011154212609
1 42006U 17008BL  20348.16423585  .00004421  00000-0  16438-3 0  9995
2 42006  97.3478  53.6065 0008181  51.6685 308.5288 15.28013899212652
1 42006U 17008BL  20348.22972231  .00004429  00000-0  16467-3 0  9999
2 42006  97.3478  53.6710 0008178  51.4687 308.7285 15.28014600212666
1 42006U 17008BL  20348.75361447  .00004135  00000-0  15389-3 0  9994
2 42006  97.3477  54.1875 0008152  49.9006 310.2947 15.28018203212747
1 42006U 17008BL  20349.34299106  .00003979  00000-0  14816-3 0  9991
2 42006  97.3474  54.7685 0008103  48.1160 312.0770 15.28022734212835
1 42006U 17008BL  20350.45625354  .00003873  00000-0  14427-3 0  9994
2 42006  97.3470  55.8659 0008001  44.6396 315.5487 15.28031103213006
1 42006U 17008BL  20350.71819715  .00003469  00000-0  12951-3 0  9990
2 42006  97.3469  56.1241 0007974  43.7432 316.4438 15.28031999213047
1 42006U 17008BL  20351.30756864  .00003353  00000-0  12525-3 0  9990
2 42006  97.3466  56.7050 0007898  41.8892 318.2950 15.28035807213133
1 42006U 17008BL  20351.76596817  .00003361  00000-0  12554-3 0  9991
2 42006  97.3465  57.1567 0007871  40.5174 319.6651 15.28038619213205
1 42006U 17008BL  20351.83145364  .00003410  00000-0  12732-3 0  9999
2 42006  97.3464  57.2213 0007865  40.3216 319.8605 15.28039204213214
1 42006U 17008BL  20352.48630763  .00003404  00000-0  12709-3 0  9990
2 42006  97.3463  57.8668 0007813  38.1650 322.0142 15.28043694213314
1 42006U 17008BL  20353.14115987  .00003471  00000-0  12950-3 0  9992
2 42006  97.3461  58.5123 0007757  36.0430 324.1331 15.28048231213412
1 42006U 17008BL  20353.73052577  .00003298  00000-0  12317-3 0  9996
2 42006  97.3461  59.0932 0007714  34.1920 325.9815 15.28051276213501
1 42006U 17008BL  20354.45085966  .00003281  00000-0  12253-3 0  9995
2 42006  97.3460  59.8032 0007648  31.8048 328.3652 15.28055635213611
1 42006U 17008BL  20354.84376783  .00003465  00000-0  12927-3 0  9990
2 42006  97.3460  60.1905 0007615  30.4696 329.6984 15.28058925213676
1 42006U 17008BL  20355.43312922  .00003470  00000-0  12941-3 0  9993
2 42006  97.3460  60.7715 0007557  28.5010 331.6642 15.28062772213763
1 42006U 17008BL  20355.82603566  .00003588  00000-0  13373-3 0  9993
2 42006  97.3459  61.1588 0007521  27.2294 332.9338 15.28065934213821
1 42006U 17008BL  20356.41539444  .00003489  00000-0  13011-3 0  9991
2 42006  97.3460  61.7397 0007464  25.3042 334.8562 15.28069528213916
1 42006U 17008BL  20356.48087829  .00003793  00000-0  14119-3 0  9991
2 42006  97.3460  61.8042 0007460  25.0872 335.0729 15.28071084213927
1 42006U 17008BL  20357.13571894  .00004104  00000-0  15253-3 0  9991
2 42006  97.3459  62.4497 0007396  23.0737 337.0834 15.28075946214024
1 42006U 17008BL  20357.46313792  .00004563  00000-0  16926-3 0  9995
2 42006  97.3460  62.7725 0007360  21.9650 338.1903 15.28079747214072
1 42006U 17008BL  20358.44539179  .00004869  00000-0  18036-3 0  9996
2 42006  97.3461  63.7408 0007259  18.4994 341.6508 15.28088845214227
1 42006U 17008BL  20359.49312237  .00004591  00000-0  17018-3 0  9997
2 42006  97.3463  64.7738 0007160  15.0050 345.1401 15.28098173214386
1 42006U 17008BL  20359.82053640  .00005158  00000-0  19083-3 0  9998
2 42006  97.3463  65.0966 0007138  13.9231 346.2204 15.28102807214435
1 42006U 17008BL  20360.21343232  .00004798  00000-0  17771-3 0  9993
2 42006  97.3463  65.4840 0007091  12.6019 347.5397 15.28106079214496
1 42006U 17008BL  20360.73729263  .00004491  00000-0  16649-3 0  9995
2 42006  97.3463  66.0004 0007037  10.8111 349.3279 15.28110320214570
1 42006U 17008BL  20360.86825739  .00004725  00000-0  17501-3 0  9992
2 42006  97.3462  66.1295 0007023  10.3387 349.7996 15.28111999214592
1 42006U 17008BL  20361.45759799  .00003915  00000-0  14547-3 0  9997
2 42006  97.3462  66.7105 0006947   8.2566 351.8787 15.28115450214685
1 42006U 17008BL  20361.85049051  .00003983  00000-0  14793-3 0  9992
2 42006  97.3461  67.0979 0006905   6.7916 353.3416 15.28119207214740
1 42006U 17008BL  20362.17790045  .00003943  00000-0  14645-3 0  9996
2 42006  97.3461  67.4207 0006872   5.5889 354.5426 15.28121993214791
1 42006U 17008BL  20362.43982790  .00003978  00000-0  14772-3 0  9994
2 42006  97.3461  67.6788 0006841   4.6848 355.4454 15.28124289214835
1 42006U 17008BL  20363.22560867  .00003987  00000-0  14801-3 0  9992
2 42006  97.3460  68.4536 0006758   1.9414 358.1850 15.28130559214950
1 42006U 17008BL  20363.35657187  .00003973  00000-0  14752-3 0  9998
2 42006  97.3460  68.5828 0006744   1.4872 358.6386 15.28131443214977
1 42006U 17008BL  20363.74946071  .00004206  00000-0  15600-3 0  9997
2 42006  97.3459  68.9701 0006709   0.1348 359.9893 15.28135074215033
1 42006U 17008BL  20364.46975453  .00004503  00000-0  16676-3 0  9997
2 42006  97.3456  69.6801 0006632 357.4375   2.6830 15.28141608215147
1 42006U 17008BL  20364.73167888  .00004448  00000-0  16476-3 0  9998
2 42006  97.3455  69.9383 0006606 356.4267   3.6924 15.28143753215186
1 42006U 17008BL  20365.45196829  .00004412  00000-0  16341-3 0  9997
2 42006  97.3453  70.6483 0006543 353.5642   6.5513 15.28150164215291
1 42006U 17008BL  20365.64841040  .00004373  00000-0  16200-3 0  9990
2 42006  97.3452  70.8419 0006518 352.8261   7.2885 15.28151968215329
1 42006U 17008BL  20365.84485252  .00004136  00000-0  15336-3 0  9997
2 42006  97.3451  71.0355 0006508 352.1174   7.9962 15.28152956215359
1 42006U 17008BL  20366.43417671  .00004300  00000-0  15929-3 0  9994
2 42006  97.3450  71.6164 0006448 349.8278  10.2830 15.28158737215447
1 42006U 17008BL  20366.76157864  .00003922  00000-0  14552-3 0  9995
2 42006  97.3448  71.9391 0006414 348.6973  11.4122 15.28160578215499
1 42006U 17008BL  20366.82705894  .00003843  00000-0  14264-3 0  9996
2 42006  97.3448  72.0036 0006411 348.4287  11.6804 15.28160883215500
1 42006U 17008BL  21001.15445990  .00003904  00000-0  14487-3 0  9992
2 42006  97.3447  72.3264 0006378 347.1867  12.9209 15.28163849215550
1 42006U 17008BL  21001.74378058  .00003495  00000-0  12996-3 0  9995
2 42006  97.3445  72.9072 0006306 345.0174  15.0878 15.28167513215648
1 42006U 17008BL  21002.13666014  .00003542  00000-0  13164-3 0  9992
2 42006  97.3443  73.2945 0006275 343.4360  16.6674 15.28170474215701
1 42006U 17008BL  21002.26761991  .00003338  00000-0  12421-3 0  9994
2 42006  97.3443  73.4235 0006261 342.9174  17.1854 15.28170931215723
1 42006U 17008BL  21002.92241769  .00003091  00000-0  11523-3 0  9991
2 42006  97.3441  74.0689 0006196 340.2036  19.8962 15.28174629215824
1 42006U 17008BL  21003.18433645  .00003208  00000-0  11947-3 0  9996
2 42006  97.3442  74.3271 0006184 339.2363  20.8625 15.28176491215864
1 42006U 17008BL  21003.44625508  .00003017  00000-0  11251-3 0  9992
2 42006  97.3442  74.5852 0006156 338.2318  21.8659 15.28177447215904
1 42006U 17008BL  21003.90461175  .00002989  00000-0  11150-3 0  9996
2 42006  97.3441  75.0370 0006115 336.3852  23.7106 15.28180193215978
1 42006U 17008BL  21004.42844725  .00002818  00000-0  10525-3 0  9996
2 42006  97.3441  75.5533 0006063 334.2027  25.8910 15.28182672216057
1 42006U 17008BL  21004.49392675  .00002758  00000-0  10307-3 0  9996
2 42006  97.3440  75.6179 0006058 333.9024  26.1910 15.28182798216064
1 42006U 17008BL  21005.47611543  .00002926  00000-0  10918-3 0  9998
2 42006  97.3440  76.5860 0005990 329.8383  30.2511 15.28188681216214
1 42006U 17008BL  21005.80351084  .00003106  00000-0  11573-3 0  9995
2 42006  97.3440  76.9087 0005961 328.5092  31.5790 15.28190977216269
1 42006U 17008BL  21005.86898932  .00003443  00000-0  12796-3 0  9991
2 42006  97.3441  76.9733 0005961 328.2172  31.8707 15.28192655216271
1 42006U 17008BL  21006.45829957  .00003655  00000-0  13566-3 0  9999
2 42006  97.3441  77.5542 0005907 325.7941  34.2917 15.28196728216367
1 42006U 17008BL  21006.85117244  .00003589  00000-0  13326-3 0  9992
2 42006  97.3441  77.9415 0005871 324.1385  35.9460 15.28198798216422
1 42006U 17008BL  21007.17856559  .00003689  00000-0  13690-3 0  9992
2 42006  97.3441  78.2642 0005848 322.7381  37.3452 15.28201330216471
1 42006U 17008BL  21007.44048014  .00003309  00000-0  12305-3 0  9992
2 42006  97.3442  78.5224 0005817 321.5991  38.4834 15.28201707216510
